NORAD_CAT_ID,OBJECT_NAME,OBJECT_TYPE,EPOCH,MEAN_MOTION,ECCENTRICITY,INCLINATION,RA_OF_ASC_NODE,ARG_OF_PERICENTER,MEAN_ANOMALY,BSTAR,MEAN_MOTION_DOT,MEAN_MOTION_DDOT,TLE_LINE0,TLE_LINE1,TLE_LINE2,SEMIMAJOR_AXIS,PERIOD,APOGEE,PERIGEE,DECAYED
52688.0,STARLINK-4032,PAYLOAD,2023-07-17 14:38:35,15.08838591,0.0001075,53.2158,160.905,85.2865,274.825,5.6541e-05,6.12e-06,0.0,0 STARLINK-4032,1 52688U 22053AJ  23198.61012786  .00000612  00000-0  56541-4 0  9999,2 52688  53.2158 160.9050 0001075  85.2865 274.8250 15.08838591 64908,6917.885,95.438,540.493,539.006,0.0
52688.0,STARLINK-4032,PAYLOAD,2023-07-18 06:32:25,15.08847369,0.0001094,53.2159,157.9306,85.4662,274.6455,0.00016204,2.292e-05,0.0,0 STARLINK-4032,1 52688U 22053AJ  23199.27252086  .00002292  00000-0  16204-3 0  9998,2 52688  53.2159 157.9306 0001094  85.4662 274.6455 15.08847369 65007,6917.858,95.437,540.48,538.966,0.0
52688.0,STARLINK-4032,PAYLOAD,2023-07-18 22:26:17,15.08837898,0.0001537,53.2165,154.9513,86.0709,274.0459,7.2385e-05,8.64e-06,0.0,0 STARLINK-4032,1 52688U 22053AJ  23199.93493028  .00000864  00000-0  72385-4 0  9990,2 52688  53.2165 154.9513 0001537  86.0709 274.0459 15.08837898 65107,6917.887,95.438,540.815,538.689,0.0
52688.0,STARLINK-4032,PAYLOAD,2023-07-20 20:32:29,15.0883872,0.0001214,53.2155,146.3331,87.5052,272.6079,3.6238e-05,2.89e-06,0.0,0 STARLINK-4032,1 52688U 22053AJ  23201.85589132  .00000289  00000-0  36238-4 0  9995,2 52688  53.2155 146.3331 0001214  87.5052 272.6079 15.08838720 65396,6917.884,95.438,540.589,538.909,0.0
52688.0,STARLINK-4032,PAYLOAD,2023-07-21 06:04:47,15.08843593,0.0001238,53.2154,144.5491,87.6189,272.4945,7.3369e-05,8.8e-06,0.0,0 STARLINK-4032,1 52688U 22053AJ  23202.25332682  .00000880  00000-0  73369-4 0  9999,2 52688  53.2154 144.5491 0001238  87.6189 272.4945 15.08843593 65451,6917.869,95.437,540.591,538.878,0.0
52688.0,STARLINK-4032,PAYLOAD,2023-07-24 05:37:10,15.08831331,0.0001451,53.2167,131.1672,96.4578,263.6579,-3.7994e-05,-8.92e-06,0.0,0 STARLINK-4032,1 52688U 22053AJ  23205.23414405 -.00000892  00000-0 -37994-4 0  9993,2 52688  53.2167 131.1672 0001451  96.4578 263.6579 15.08831331 66278,6917.907,95.438,540.776,538.768,0.0
52688.0,STARLINK-4032,PAYLOAD,2023-07-25 05:27:56,15.08842279,0.0001215,53.2172,126.7056,123.6485,236.4623,0.00010792,1.43e-05,0.0,0 STARLINK-4032,1 52688U 22053AJ  23206.22773315  .00001430  00000-0  10792-3 0  9994,2 52688  53.2172 126.7056 0001215 123.6485 236.4623 15.08842279 66426,6917.873,95.437,540.579,538.898,0.0
52688.0,STARLINK-4032,PAYLOAD,2023-07-26 03:43:21,15.08842738,0.0003772,53.211,122.547,67.8666,292.2726,5.9647e-05,6.61e-06,0.0,0 STARLINK-4032,1 52688U 22053AJ  23207.15510871  .00000661  00000-0  59647-4 0  9991,2 52688  53.2110 122.5470 0003772  67.8666 292.2726 15.08842738 66561,6917.872,95.437,542.346,537.128,0.0
52688.0,STARLINK-4032,PAYLOAD,2023-07-27 00:23:20,15.08850617,0.0001182,53.216,118.6769,90.9947,269.1181,-1.4748e-05,-5.23e-06,0.0,0 STARLINK-4032,1 52688U 22053AJ  23208.01621397 -.00000523  00000-0 -14748-4 0  9995,2 52688  53.2160 118.6769 0001182  90.9947 269.1181 15.08850617 66322,6917.848,95.437,540.531,538.895,0.0
52688.0,STARLINK-4032,PAYLOAD,2023-07-27 03:34:06,15.088462,0.0001141,53.2157,118.0827,93.6485,266.4638,9.5878e-05,1.239e-05,0.0,0 STARLINK-4032,1 52688U 22053AJ  23208.14869141  .00001239  00000-0  95878-4 0  9996,2 52688  53.2157 118.0827 0001141  93.6485 266.4638 15.08846200 66712,6917.861,95.437,540.516,538.937,0.0
52688.0,STARLINK-4032,PAYLOAD,2023-07-27 17:52:36,15.08830458,0.000138,53.2136,115.4085,94.5807,265.5343,-2.055e-05,-6.15e-06,0.0,0 STARLINK-4032,1 52688U 22053AJ  23208.74486558 -.00000615  00000-0 -20550-4 0  9993,2 52688  53.2136 115.4085 0001380  94.5807 265.5343 15.08830458 66439,6917.91,95.438,540.729,538.82,0.0
52688.0,STARLINK-4032,PAYLOAD,2023-07-28 03:24:55,15.08831537,0.0001306,53.2162,113.6221,87.1241,272.9901,-7.7643e-05,-1.523e-05,0.0,0 STARLINK-4032,1 52688U 22053AJ  23209.14230992 -.00001523  00000-0 -77643-4 0  9991,2 52688  53.2162 113.6221 0001306  87.1241 272.9901 15.08831537 66866,6917.906,95.438,540.675,538.868,0.0
52688.0,STARLINK-4032,PAYLOAD,2023-07-28 17:43:23,15.08856523,0.0001365,53.218,110.9462,89.7551,270.3597,-0.00014803,-2.644e-05,0.0,0 STARLINK-4032,1 52688U 22053AJ  23209.73846127 -.00002644  00000-0 -14803-3 0  9992,2 52688  53.2180 110.9462 0001365  89.7551 270.3597 15.08856523 66584,6917.83,95.437,540.639,538.751,0.0
52688.0,STARLINK-4032,PAYLOAD,2023-07-29 00:04:54,15.08858393,0.0001377,53.2171,109.7574,81.493,278.6218,3.1849e-05,2.19e-06,0.0,0 STARLINK-4032,1 52688U 22053AJ  23210.00341065  .00000219  00000-0  31849-4 0  9999,2 52688  53.2171 109.7574 0001377  81.4930 278.6218 15.08858393 66620,6917.824,95.436,540.642,538.737,0.0
52688.0,STARLINK-4032,PAYLOAD,2023-07-29 17:34:10,15.08833604,0.0001151,53.217,106.4866,83.7944,276.3179,0.00010119,1.323e-05,0.0,0 STARLINK-4032,1 52688U 22053AJ  23210.73206525  .00001323  00000-0  10119-3 0  9993,2 52688  53.2170 106.4866 0001151  83.7944 276.3179 15.08833604 66738,6917.9,95.438,540.561,538.969,0.0
52688.0,STARLINK-4032,PAYLOAD,2023-07-30 01:31:05,15.0884864,0.0001354,53.2164,104.9999,89.3557,270.759,0.00025453,3.766e-05,0.0,0 STARLINK-4032,1 52688U 22053AJ  23211.06325920  .00003766  00000-0  25453-3 0  9991,2 52688  53.2164 104.9999 0001354  89.3557 270.7590 15.08848640 66784,6917.854,95.437,540.656,538.782,0.0
52688.0,STARLINK-4032,PAYLOAD,2023-07-31 01:21:52,15.08839979,0.000145,53.2175,100.542,87.6736,272.4422,-0.00010103,-1.895e-05,0.0,0 STARLINK-4032,1 52688U 22053AJ  23212.05686259 -.00001895  00000-0 -10103-3 0  9995,2 52688  53.2175 100.5420 0001450  87.6736 272.4422 15.08839979 66939,6917.88,95.438,540.749,538.742,0.0
52688.0,STARLINK-4032,PAYLOAD,2023-08-01 01:12:39,15.08845902,0.0001358,53.2179,96.0792,87.6456,272.4691,0.00010016,1.307e-05,0.0,0 STARLINK-4032,1 52688U 22053AJ  23213.05046124  .00001307  00000-0  10016-3 0  9996,2 52688  53.2179  96.0792 0001358  87.6456 272.4691 15.08845902 67088,6917.862,95.437,540.667,538.788,0.0
52688.0,STARLINK-4032,PAYLOAD,2023-08-02 01:03:27,15.08840252,0.0001487,53.2176,91.6164,80.6932,279.4229,0.00012789,1.748e-05,0.0,0 STARLINK-4032,1 52688U 22053AJ  23214.04406789  .00001748  00000-0  12789-3 0  9991,2 52688  53.2176  91.6164 0001487  80.6932 279.4229 15.08840252 67238,6917.88,95.438,540.773,538.716,0.0
52688.0,STARLINK-4032,PAYLOAD,2023-08-04 00:45:01,15.08841721,0.0001478,53.2158,82.6951,83.4024,276.7137,8.0431e-05,9.92e-06,0.0,0 STARLINK-4032,1 52688U 22053AJ  23216.03126925  .00000992  00000-0  80431-4 0  9993,2 52688  53.2158  82.6951 0001478  83.4024 276.7137 15.08841721 67538,6917.875,95.437,540.763,538.718,0.0
52688.0,STARLINK-4032,PAYLOAD,2023-08-05 18:05:02,15.08858307,0.0001042,53.2165,74.9624,97.5377,262.5734,3.8765e-05,3.29e-06,0.0,0 STARLINK-4032,1 52688U 22053AJ  23217.75349874  .00000329  00000-0  38765-4 0  9990,2 52688  53.2165  74.9624 0001042  97.5377 262.5734 15.08858307 67793,6917.824,95.436,540.41,538.969,0.0
52688.0,STARLINK-4032,PAYLOAD,2023-08-06 19:31:14,15.08826271,0.0001123,53.2162,70.2048,108.9692,251.1422,-0.00011678,-2.145e-05,0.0,0 STARLINK-4032,1 52688U 22053AJ  23218.81335792 -.00002145  00000-0 -11678-3 0  9995,2 52688  53.2162  70.2048 0001123 108.9692 251.1422 15.08826271 67957,6917.922,95.438,540.564,539.01,0.0
52688.0,STARLINK-4032,PAYLOAD,2023-08-07 20:57:23,15.08853525,9.38e-05,53.2162,65.4465,81.2887,278.8212,0.0005097,7.836e-05,0.0,0 STARLINK-4032,1 52688U 22053AJ  23219.87319256  .00007836  00000-0  50970-3 0  9997,2 52688  53.2162  65.4465 0000938  81.2887 278.8212 15.08853525 68112,6917.839,95.437,540.353,539.055,0.0
52688.0,STARLINK-4032,PAYLOAD,2023-08-08 06:29:43,15.08838764,0.0001707,53.2166,63.6617,82.2631,277.8555,0.00030078,4.502e-05,0.0,0 STARLINK-4032,1 52688U 22053AJ  23220.27064175  .00004502  00000-0  30078-3 0  9994,2 52688  53.2166  63.6617 0001707  82.2631 277.8555 15.08838764 68171,6917.884,95.438,540.93,538.568,0.0
52688.0,STARLINK-4032,PAYLOAD,2023-08-08 22:23:33,15.08865381,8.25e-05,53.2155,60.6908,76.1036,284.0047,0.00068437,0.00010628,0.0,0 STARLINK-4032,1 52688U 22053AJ  23220.93303174  .00010628  00000-0  68437-3 0  9998,2 52688  53.2155  60.6908 0000825  76.1036 284.0047 15.08865381 68272,6917.803,95.436,540.239,539.097,0.0
52688.0,STARLINK-4032,PAYLOAD,2023-08-09 06:20:30,15.08850061,0.0002534,53.2157,59.2039,82.442,277.686,0.00014064,1.951e-05,0.0,0 STARLINK-4032,1 52688U 22053AJ  23221.26423863  .00001951  00000-0  14064-3 0  9999,2 52688  53.2157  59.2039 0002534  82.4420 277.6860 15.08850061 68325,6917.85,95.437,541.468,537.962,0.0
52688.0,STARLINK-4032,PAYLOAD,2023-08-10 06:11:16,15.08841812,8.7e-05,53.2161,54.7436,84.4825,275.6266,-6.6724e-05,-1.349e-05,0.0,0 STARLINK-4032,1 52688U 22053AJ  23222.25783370 -.00001349  00000-0 -66724-4 0  9995,2 52688  53.2161  54.7436 0000870  84.4825 275.6266 15.08841812 68471,6917.875,95.437,540.342,539.138,0.0
52688.0,STARLINK-4032,PAYLOAD,2023-08-11 18:45:09,15.08843962,7.96e-05,53.2167,47.905,81.3192,278.789,0.00017595,2.514e-05,0.0,0 STARLINK-4032,1 52688U 22053AJ  23223.78135615  .00002514  00000-0  17595-3 0  9991,2 52688  53.2167  47.9050 0000796  81.3192 278.7890 15.08843962 68704,6917.868,95.437,540.284,539.183,0.0
52688.0,STARLINK-4032,PAYLOAD,2023-08-12 23:22:05,15.08852614,9.32e-05,53.2165,42.5519,80.3849,279.7249,0.00032085,4.824e-05,0.0,0 STARLINK-4032,1 52688U 22053AJ  23224.97367314  .00004824  00000-0  32085-3 0  9993,2 52688  53.2165  42.5519 0000932  80.3849 279.7249 15.08852614 68885,6917.842,95.437,540.352,539.062,0.0
52688.0,STARLINK-4032,PAYLOAD,2023-08-13 12:05:10,15.08838629,9.01e-05,53.2168,40.1717,82.9365,277.173,9.5235e-05,1.228e-05,0.0,0 STARLINK-4032,1 52688U 22053AJ  23225.50359921  .00001228  00000-0  95235-4 0  9990,2 52688  53.2168  40.1717 0000901  82.9365 277.1730 15.08838629 68965,6917.885,95.438,540.373,539.126,0.0
